start=new Date('2022-08-09T00:00:00.000Z').valueOf();
sats=[{"COUNTRY_CODE":"US","PERIAPSIS":"538.158","RCS_SIZE":"LARGE","MEAN_MOTION":"15.08876805","SITE":"AFETR","MEAN_ELEMENT_THEORY":"SGP4","CENTER_NAME":"EARTH","BSTAR":"-0.00300270000000","FILE":"3532305","REF_FRAME":"TEME","ELEMENT_SET_NO":"999","TLE_LINE1":"1 51877U 22022AB  22220.91667824 -.00047809  00000-0 -30027-2 0  9991","TLE_LINE2":"2 51877  53.2163 114.4268 0002132  67.6444 107.6595 15.08876805  1300","TIME_SYSTEM":"UTC","REV_AT_EPOCH":"130","CLASSIFICATION_TYPE":"U","MEAN_ANOMALY":"107.6595","OBJECT_TYPE":"PAYLOAD","SEMIMAJOR_AXIS":"6917.768","INCLINATION":"53.2163","DECAY_DATE":null,"PERIOD":"95.435","OBJECT_ID":"2022-022AB","ECCENTRICITY":"0.00021320","MEAN_MOTION_DOT":"-0.00047809","NORAD_CAT_ID":"51877","ARG_OF_PERICENTER":"67.6444","MEAN_MOTION_DDOT":"0.0000000000000","APOAPSIS":"541.108","EPOCH":"2022-08-08T22:00:00.999936","OBJECT_NAME":"STARLINK-3556","GP_ID":"209862270","EPHEMERIS_TYPE":"0","LAUNCH_DATE":"2022-03-03","RA_OF_ASC_NODE":"114.4268"},{"RCS_SIZE":"LARGE","SITE":"AFETR","MEAN_MOTION":"15.08868717","CENTER_NAME":"EARTH","MEAN_ELEMENT_THEORY":"SGP4","COUNTRY_CODE":"US","PERIAPSIS":"538.034","TIME_SYSTEM":"UTC","REV_AT_EPOCH":"130","FILE":"3532305","REF_FRAME":"TEME","BSTAR":"-0.00217570000000","ELEMENT_SET_NO":"999","TLE_LINE1":"1 51878U 22022AC  22220.91667824 -.00034776  00000-0 -21757-2 0  9991","TLE_LINE2":"2 51878  53.2186 124.4198 0002347  62.6242  57.6656 15.08868717  1303","ECCENTRICITY":"0.00023470","MEAN_MOTION_DOT":"-0.00034776","NORAD_CAT_ID":"51878","ARG_OF_PERICENTER":"62.6242","CLASSIFICATION_TYPE":"U","MEAN_ANOMALY":"57.6656","OBJECT_TYPE":"PAYLOAD","SEMIMAJOR_AXIS":"6917.793","INCLINATION":"53.2186","DECAY_DATE":null,"PERIOD":"95.436","OBJECT_ID":"2022-022AC","LAUNCH_DATE":"2022-03-03","EPHEMERIS_TYPE":"0","RA_OF_ASC_NODE":"124.4198","MEAN_MOTION_DDOT":"0.0000000000000","APOAPSIS":"541.281","EPOCH":"2022-08-08T22:00:00.999936","OBJECT_NAME":"STARLINK-3575","GP_ID":"209862520"},{"RCS_SIZE":"LARGE","MEAN_MOTION":"15.08866081","SITE":"AFETR","CENTER_NAME":"EARTH","MEAN_ELEMENT_THEORY":"SGP4","COUNTRY_CODE":"US","PERIAPSIS":"538.192","TIME_SYSTEM":"UTC","REV_AT_EPOCH":"130","FILE":"3532305","BSTAR":"-0.00189030000000","REF_FRAME":"TEME","TLE_LINE1":"1 51879U 22022AD  22220.91667824 -.00030269  00000-0 -18903-2 0  9994","ELEMENT_SET_NO":"999","TLE_LINE2":"2 51879  53.2165 114.4282 0002130  67.4543 147.8611 15.08866081  1306","ECCENTRICITY":"0.00021300","MEAN_MOTION_DOT":"-0.00030269","NORAD_CAT_ID":"51879","ARG_OF_PERICENTER":"67.4543","CLASSIFICATION_TYPE":"U","OBJECT_TYPE":"PAYLOAD","MEAN_ANOMALY":"147.8611","SEMIMAJOR_AXIS":"6917.801","INCLINATION":"53.2165","DECAY_DATE":null,"PERIOD":"95.436","OBJECT_ID":"2022-022AD","LAUNCH_DATE":"2022-03-03","EPHEMERIS_TYPE":"0","RA_OF_ASC_NODE":"114.4282","MEAN_MOTION_DDOT":"0.0000000000000","APOAPSIS":"541.139","EPOCH":"2022-08-08T22:00:00.999936","OBJECT_NAME":"STARLINK-3572","GP_ID":"209863771"},{"REF_FRAME":"TEME","FILE":"3532305","BSTAR":"-0.00419360000000","ELEMENT_SET_NO":"999","TLE_LINE1":"1 51880U 22022AE  22220.91667824 -.00066501  00000-0 -41936-2 0  9996","TLE_LINE2":"2 51880  53.2173 124.4473 0002468  70.9940 244.0832 15.08886076  1305","TIME_SYSTEM":"UTC","REV_AT_EPOCH":"130","COUNTRY_CODE":"US","PERIAPSIS":"537.897","RCS_SIZE":"LARGE","SITE":"AFETR","MEAN_MOTION":"15.08886076","MEAN_ELEMENT_THEORY":"SGP4","CENTER_NAME":"EARTH","MEAN_MOTION_DDOT":"0.0000000000000","APOAPSIS":"541.312","EPOCH":"2022-08-08T22:00:00.999936","OBJECT_NAME":"STARLINK-3566","GP_ID":"209864022","LAUNCH_DATE":"2022-03-03","EPHEMERIS_TYPE":"0","RA_OF_ASC_NODE":"124.4473","CLASSIFICATION_TYPE":"U","MEAN_ANOMALY":"244.0832","OBJECT_TYPE":"PAYLOAD","SEMIMAJOR_AXIS":"6917.740","INCLINATION":"53.2173","DECAY_DATE":null,"PERIOD":"95.435","OBJECT_ID":"2022-022AE","ECCENTRICITY":"0.00024680","MEAN_MOTION_DOT":"-0.00066501","NORAD_CAT_ID":"51880","ARG_OF_PERICENTER":"70.9940"},{"MEAN_MOTION_DOT":"-0.00062740","NORAD_CAT_ID":"51881","ARG_OF_PERICENTER":"65.6280","ECCENTRICITY":"0.00024600","INCLINATION":"53.2168","DECAY_DATE":null,"PERIOD":"95.435","OBJECT_ID":"2022-022AF","CLASSIFICATION_TYPE":"U","OBJECT_TYPE":"PAYLOAD","MEAN_ANOMALY":"189.6631","SEMIMAJOR_AXIS":"6917.742","RA_OF_ASC_NODE":"114.4338","EPHEMERIS_TYPE":"0","LAUNCH_DATE":"2022-03-03","EPOCH":"2022-08-08T22:00:00.999936","OBJECT_NAME":"STARLINK-3504","GP_ID":"209862770","MEAN_MOTION_DDOT":"0.0000000000000","APOAPSIS":"541.309","MEAN_MOTION":"15.08885260","SITE":"AFETR","MEAN_ELEMENT_THEORY":"SGP4","CENTER_NAME":"EARTH","RCS_SIZE":"LARGE","PERIAPSIS":"537.905","COUNTRY_CODE":"US","TIME_SYSTEM":"UTC","REV_AT_EPOCH":"130","TLE_LINE2":"2 51881  53.2168 114.4338 0002460  65.6280 189.6631 15.08885260  1304","BSTAR":"-0.00395340000000","FILE":"3532305","REF_FRAME":"TEME","TLE_LINE1":"1 51881U 22022AF  22220.91667824 -.00062740  00000-0 -39534-2 0  9999","ELEMENT_SET_NO":"999"},{"RCS_SIZE":"LARGE","SITE":"AFETR","MEAN_MOTION":"15.08890809","MEAN_ELEMENT_THEORY":"SGP4","CENTER_NAME":"EARTH","COUNTRY_CODE":"US","PERIAPSIS":"538.178","TIME_SYSTEM":"UTC","REV_AT_EPOCH":"130","ELEMENT_SET_NO":"999","TLE_LINE1":"1 51882U 22022AG  22220.91667824 -.00060272  00000-0 -37954-2 0  9992","BSTAR":"-0.00379540000000","FILE":"3532305","REF_FRAME":"TEME","TLE_LINE2":"2 51882  53.2153 114.4267 0002041  66.5588 128.6754 15.08890809  1300","ECCENTRICITY":"0.00020410","MEAN_MOTION_DOT":"-0.00060272","ARG_OF_PERICENTER":"66.5588","NORAD_CAT_ID":"51882","OBJECT_TYPE":"PAYLOAD","MEAN_ANOMALY":"128.6754","CLASSIFICATION_TYPE":"U","SEMIMAJOR_AXIS":"6917.725","INCLINATION":"53.2153","OBJECT_ID":"2022-022AG","PERIOD":"95.434","DECAY_DATE":null,"LAUNCH_DATE":"2022-03-03","EPHEMERIS_TYPE":"0","RA_OF_ASC_NODE":"114.4267","MEAN_MOTION_DDOT":"0.0000000000000","APOAPSIS":"541.002","EPOCH":"2022-08-08T22:00:00.999936","GP_ID":"209863020","OBJECT_NAME":"STARLINK-3570"},{"CENTER_NAME":"EARTH","MEAN_ELEMENT_THEORY":"SGP4","MEAN_MOTION":"15.08872435","SITE":"AFETR","RCS_SIZE":"LARGE","PERIAPSIS":"538.410","COUNTRY_CODE":"US","REV_AT_EPOCH":"130","TIME_SYSTEM":"UTC","TLE_LINE2":"2 51883  53.2178 114.4389 0001787  55.8194 234.2660 15.08872435  1308","FILE":"3532305","REF_FRAME":"TEME","BSTAR":"-0.00210000000000","ELEMENT_SET_NO":"999","TLE_LINE1":"1 51883U 22022AH  22220.91667824 -.00033584  00000-0 -21000-2 0  9994","NORAD_CAT_ID":"51883","ARG_OF_PERICENTER":"55.8194","MEAN_MOTION_DOT":"-0.00033584","ECCENTRICITY":"0.00017870","DECAY_DATE":null,"PERIOD":"95.436","OBJECT_ID":"2022-022AH","INCLINATION":"53.2178","SEMIMAJOR_AXIS":"6917.781","CLASSIFICATION_TYPE":"U","OBJECT_TYPE":"PAYLOAD","MEAN_ANOMALY":"234.2660","RA_OF_ASC_NODE":"114.4389","EPHEMERIS_TYPE":"0","LAUNCH_DATE":"2022-03-03","OBJECT_NAME":"STARLINK-3576","GP_ID":"209863272","EPOCH":"2022-08-08T22:00:00.999936","APOAPSIS":"540.882","MEAN_MOTION_DDOT":"0.0000000000000"},{"COUNTRY_CODE":"US","PERIAPSIS":"538.296","RCS_SIZE":"LARGE","MEAN_MOTION":"15.08867955","SITE":"AFETR","CENTER_NAME":"EARTH","MEAN_ELEMENT_THEORY":"SGP4","TLE_LINE1":"1 51884U 22022AJ  22220.91667824 -.00027761  00000-0 -17315-2 0  9999","ELEMENT_SET_NO":"999","FILE":"3532305","BSTAR":"-0.00173150000000","REF_FRAME":"TEME","TLE_LINE2":"2 51884  53.2165 114.4272 0001972  63.9261 171.3709 15.08867955  1303","TIME_SYSTEM":"UTC","REV_AT_EPOCH":"130","OBJECT_TYPE":"PAYLOAD","MEAN_ANOMALY":"171.3709","CLASSIFICATION_TYPE":"U","SEMIMAJOR_AXIS":"6917.795","INCLINATION":"53.2165","OBJECT_ID":"2022-022AJ","DECAY_DATE":null,"PERIOD":"95.436","ECCENTRICITY":"0.00019720","MEAN_MOTION_DOT":"-0.00027761","ARG_OF_PERICENTER":"63.9261","NORAD_CAT_ID":"51884","MEAN_MOTION_DDOT":"0.0000000000000","APOAPSIS":"541.024","EPOCH":"2022-08-08T22:00:00.999936","GP_ID":"209863523","OBJECT_NAME":"STARLINK-3577","LAUNCH_DATE":"2022-03-03","EPHEMERIS_TYPE":"0","RA_OF_ASC_NODE":"114.4272"},{"APOAPSIS":"541.378","MEAN_MOTION_DDOT":"0.0000000000000","GP_ID":"209862271","OBJECT_NAME":"STARLINK-3584","EPOCH":"2022-08-08T22:00:00.999936","LAUNCH_DATE":"2022-03-03","EPHEMERIS_TYPE":"0","RA_OF_ASC_NODE":"114.4399","SEMIMAJOR_AXIS":"6917.767","OBJECT_TYPE":"PAYLOAD","MEAN_ANOMALY":"246.6443","CLASSIFICATION_TYPE":"U","OBJECT_ID":"2022-022AK","PERIOD":"95.435","DECAY_DATE":null,"INCLINATION":"53.2179","ECCENTRICITY":"0.00025240","ARG_OF_PERICENTER":"68.6437","NORAD_CAT_ID":"51885","MEAN_MOTION_DOT":"-0.00045214","TLE_LINE1":"1 51885U 22022AK  22220.91667824 -.00045214  00000-0 -28376-2 0  9992","ELEMENT_SET_NO":"999","BSTAR":"-0.00283760000000","FILE":"3532305","REF_FRAME":"TEME","TLE_LINE2":"2 51885  53.2179 114.4399 0002524  68.6437 246.6443 15.08877222  1309","REV_AT_EPOCH":"130","TIME_SYSTEM":"UTC","COUNTRY_CODE":"US","PERIAPSIS":"537.886","RCS_SIZE":"LARGE","CENTER_NAME":"EARTH","MEAN_ELEMENT_THEORY":"SGP4","SITE":"AFETR","MEAN_MOTION":"15.08877222"},{"RCS_SIZE":"LARGE","CENTER_NAME":"EARTH","MEAN_ELEMENT_THEORY":"SGP4","SITE":"AFETR","MEAN_MOTION":"15.08873318","COUNTRY_CODE":"US","PERIAPSIS":"537.922","REV_AT_EPOCH":"130","TIME_SYSTEM":"UTC","TLE_LINE1":"1 51886U 22022AL  22220.91667824 -.00039299  00000-0 -24622-2 0  9999","ELEMENT_SET_NO":"999","BSTAR":"-0.00246220000000","FILE":"3532305","REF_FRAME":"TEME","TLE_LINE2":"2 51886  53.2173 114.4353 0002488  64.5674 210.7130 15.08873318  1308","ECCENTRICITY":"0.00024880","ARG_OF_PERICENTER":"64.5674","NORAD_CAT_ID":"51886","MEAN_MOTION_DOT":"-0.00039299","SEMIMAJOR_AXIS":"6917.779","MEAN_ANOMALY":"210.7130","OBJECT_TYPE":"PAYLOAD","CLASSIFICATION_TYPE":"U","OBJECT_ID":"2022-022AL","DECAY_DATE":null,"PERIOD":"95.435","INCLINATION":"53.2173","LAUNCH_DATE":"2022-03-03","EPHEMERIS_TYPE":"0","RA_OF_ASC_NODE":"114.4353","APOAPSIS":"541.365","MEAN_MOTION_DDOT":"0.0000000000000","GP_ID":"209862521","OBJECT_NAME":"STARLINK-3565","EPOCH":"2022-08-08T22:00:00.999936"}];
